STARLINK-31668          
1 59580U 24076S   26068.20327655 -.00003044  00000+0 -10115-3 0  9991
2 59580  43.0046  11.2859 0001291 278.2147  81.8559 15.27569780106436
COSMOS 2576             
1 59773U 24092A   26068.82603826  .00015211  00000+0  56283-3 0  9991
2 59773  97.4253 186.0053 0005946 159.7731 200.3745 15.27760963101271
